ION SCV-004             
1 50993U 22002K   26068.68892644  .00006538  00000+0  23198-3 0  9998
2 50993  97.2961 128.2294 0007216   1.6783 358.4480 15.29369331230088
STARLINK-35451          
1 66469U 25262P   26067.99182586  .00027406  00000+0  10013-2 0  9992
2 66469  42.9992 299.7605 0002217 233.6066 126.4581 15.27592848 18809
