[{"OBJECT_NAME":"ION SCV-004","OBJECT_ID":"2022-002K","EPOCH":"2026-03-09T16:32:03.244416","MEAN_MOTION":15.29369331,"ECCENTRICITY":0.00072157,"INCLINATION":97.2961,"RA_OF_ASC_NODE":128.2294,"ARG_OF_PERICENTER":1.6783,"MEAN_ANOMALY":358.448,"EPHEMERIS_TYPE":0,"CLASSIFICATION_TYPE":"U","NORAD_CAT_ID":50993,"ELEMENT_SET_NO":999,"REV_AT_EPOCH":23008,"BSTAR":0.00023198467,"MEAN_MOTION_DOT":6.538e-5,"MEAN_MOTION_DDOT":0},{"OBJECT_NAME":"STARLINK-35451","OBJECT_ID":"2025-262P","EPOCH":"2026-03-08T23:48:13.754304","MEAN_MOTION":15.27592848,"ECCENTRICITY":0.00022172,"INCLINATION":42.9992,"RA_OF_ASC_NODE":299.7605,"ARG_OF_PERICENTER":233.6066,"MEAN_ANOMALY":126.4581,"EPHEMERIS_TYPE":0,"CLASSIFICATION_TYPE":"U","NORAD_CAT_ID":66469,"ELEMENT_SET_NO":999,"REV_AT_EPOCH":1880,"BSTAR":0.0010013047,"MEAN_MOTION_DOT":0.00027406,"MEAN_MOTION_DDOT":0}]
